EHAM 181225Z 20016KT 3200 BR SCT006 OVC007 03/02 Q1023 NOSIG