RJAA 181230Z 33007KT 9999 FEW030CB BKN/// 03/M02 Q1022 NOSIG RMK 1CB030 A3019 LIGHTNING 90KM S MOV E