UUDD 190530Z 15003MPS 4200 -SHSN BR BKN005 BKN020CB M12/M14 Q1025 64420195 14420195 TEMPO 1000